SEEDS II (CO-66)        
1 32791U 08021J   26068.92109284  .00023758  00000+0  84213-3 0  9995
2 32791  97.7519  62.3611 0001448 359.2618   0.8619 15.29097235972108
STARLINK-31093          
1 58717U 24002N   26068.68170105 -.00000199  00000+0  53870-5 0  9993
2 58717  53.1587 230.0175 0001003  97.7695 262.3420 15.30187839122014
